CCSDS_OMM_VERS = 2.0
CREATION_DATE  = 
ORIGINATOR     = 

OBJECT_NAME    = 1998-067XU
OBJECT_ID      = 1998-067XU
CENTER_NAME    = EARTH
REF_FRAME      = TEME
TIME_SYSTEM    = UTC
MEAN_ELEMENT_THEORY = SGP/SGP4

EPOCH          = 2026-01-31T00:18:57.566592
MEAN_MOTION    = 15.59778525
ECCENTRICITY   = .00026918
INCLINATION    = 51.6269
RA_OF_ASC_NODE = 256.3207
ARG_OF_PERICENTER = 156.1936
MEAN_ANOMALY   = 203.9182

EPHEMERIS_TYPE = 0
CLASSIFICATION_TYPE = U
NORAD_CAT_ID   = 66908
ELEMENT_SET_NO = 999
REV_AT_EPOCH   = 928
BSTAR          = .10547602E-2
MEAN_MOTION_DOT = .86635E-3
MEAN_MOTION_DDOT = 0

CCSDS_OMM_VERS = 2.0
CREATION_DATE  = 
ORIGINATOR     = 

OBJECT_NAME    = SILVERSAT
OBJECT_ID      = 1998-067XV
CENTER_NAME    = EARTH
REF_FRAME      = TEME
TIME_SYSTEM    = UTC
MEAN_ELEMENT_THEORY = SGP/SGP4

EPOCH          = 2026-01-30T23:52:36.354144
MEAN_MOTION    = 15.60906709
ECCENTRICITY   = .00033017
INCLINATION    = 51.6275
RA_OF_ASC_NODE = 256.1995
ARG_OF_PERICENTER = 167.8709
MEAN_ANOMALY   = 192.2364

EPHEMERIS_TYPE = 0
CLASSIFICATION_TYPE = U
NORAD_CAT_ID   = 66909
ELEMENT_SET_NO = 999
REV_AT_EPOCH   = 928
BSTAR          = .10527469E-2
MEAN_MOTION_DOT = .9035E-3
MEAN_MOTION_DDOT = 0

CCSDS_OMM_VERS = 2.0
CREATION_DATE  = 
ORIGINATOR     = 

OBJECT_NAME    = 1998-067XW
OBJECT_ID      = 1998-067XW
CENTER_NAME    = EARTH
REF_FRAME      = TEME
TIME_SYSTEM    = UTC
MEAN_ELEMENT_THEORY = SGP/SGP4

EPOCH          = 2026-01-31T00:04:56.699328
MEAN_MOTION    = 15.59869764
ECCENTRICITY   = .00015427
INCLINATION    = 51.6265
RA_OF_ASC_NODE = 256.2527
ARG_OF_PERICENTER = 154.2121
MEAN_ANOMALY   = 205.8949

EPHEMERIS_TYPE = 0
CLASSIFICATION_TYPE = U
NORAD_CAT_ID   = 66910
ELEMENT_SET_NO = 999
REV_AT_EPOCH   = 928
BSTAR          = .89750053E-3
MEAN_MOTION_DOT = .73775E-3
MEAN_MOTION_DDOT = 0

CCSDS_OMM_VERS = 2.0
CREATION_DATE  = 
ORIGINATOR     = 

OBJECT_NAME    = 1998-067XX
OBJECT_ID      = 1998-067XX
CENTER_NAME    = EARTH
REF_FRAME      = TEME
TIME_SYSTEM    = UTC
MEAN_ELEMENT_THEORY = SGP/SGP4

EPOCH          = 2026-01-30T15:37:58.731744
MEAN_MOTION    = 15.61893690
ECCENTRICITY   = .00023346
INCLINATION    = 51.6253
RA_OF_ASC_NODE = 257.6520
ARG_OF_PERICENTER = 184.9619
MEAN_ANOMALY   = 175.1352

EPHEMERIS_TYPE = 0
CLASSIFICATION_TYPE = U
NORAD_CAT_ID   = 66911
ELEMENT_SET_NO = 999
REV_AT_EPOCH   = 922
BSTAR          = .11968172E-2
MEAN_MOTION_DOT = .107007E-2
MEAN_MOTION_DDOT = 0

CCSDS_OMM_VERS = 2.0
CREATION_DATE  = 
ORIGINATOR     = 

OBJECT_NAME    = 1998-067XY
OBJECT_ID      = 1998-067XY
CENTER_NAME    = EARTH
REF_FRAME      = TEME
TIME_SYSTEM    = UTC
MEAN_ELEMENT_THEORY = SGP/SGP4

EPOCH          = 2026-01-30T23:41:37.867776
MEAN_MOTION    = 15.57433283
ECCENTRICITY   = .00023279
INCLINATION    = 51.6281
RA_OF_ASC_NODE = 256.8996
ARG_OF_PERICENTER = 125.8569
MEAN_ANOMALY   = 234.2639

EPHEMERIS_TYPE = 0
CLASSIFICATION_TYPE = U
NORAD_CAT_ID   = 66912
ELEMENT_SET_NO = 999
REV_AT_EPOCH   = 926
BSTAR          = .76232142E-3
MEAN_MOTION_DOT = .56931E-3
MEAN_MOTION_DDOT = 0

